STARLINK-2169_new
1 17752C 21017AG  21326.12206870  .00005824  00000-0  39023-3 0  3269
2 17752  53.0554  48.2046 0000981  78.1200 161.5273 15.06393767    12
STARLINK-2169_old
1 27752C 21017AG  21325.16076026  .00005070  00000-0  33976-3 0  3253
2 27752  53.0559  52.5196 0001009  79.9508 343.6298 15.06384837    11
